[{"use": "MULTIPLE USE PROPERTY","code":"010","description":"CONDO MULTI-USE","landuse":"RC"},
{"use": "MULTIPLE USE PROPERTY","code":"012","description":"RES/OPEN SPACE USE","landuse":"RC"},
{"use": "MULTIPLE USE PROPERTY","code":"013","description":"RES/COMMERCIAL USE","landuse":"RC"},
{"use": "MULTIPLE USE PROPERTY","code":"019","description":"RES/EXEMPT USE","landuse":"RC"},
{"use": "MULTIPLE USE PROPERTY","code":"025","description":"RC: ONE RES UNIT","landuse":"RC"},
{"use": "MULTIPLE USE PROPERTY","code":"026","description":"RC: TWO RES UNITS","landuse":"RC"},
{"use": "MULTIPLE USE PROPERTY","code":"027","description":"RC: THREE RES UNITS","landuse":"RC"},
{"use": "MULTIPLE USE PROPERTY","code":"031","description":"RC: COM/RES MULTI-USE","landuse":"RC"},
{"use": "RESIDENTIAL PROPERTY","code":"101","description":"SINGLE FAMILTY DWELLING","landuse":"R1"},
{"use": "RESIDENTIAL PROPERTY","code":"102","description":"RESIDENTIAL CONDO","landuse":"CD"},
{"use": "RESIDENTIAL PROPERTY","code":"103","description":"MOBILE HOME","landuse":"R1"},
{"use": "RESIDENTIAL PROPERTY","code":"104","description":"TWO-FAM DWELLING","landuse":"R2"},
{"use": "RESIDENTIAL PROPERTY","code":"105","description":"THREE-FAM DWELLING","landuse":"R3"},
{"use": "RESIDENTIAL PROPERTY","code":"106","description":"RES ANCILL IMPROVEMENT","landuse":"RL"},
{"use": "RESIDENTIAL PROPERTY","code":"107","description":"OTHER RESIDENTIAL","landuse":"RL"},
{"use": "RESIDENTIAL PROPERTY","code":"108","description":"CONDO PARKING (RES)","landuse":"CP"},
{"use": "RESIDENTIAL PROPERTY","code":"109","description":"MULTIPLE BLDGS/1 LOT","landuse":"R3"},
{"use": "RESIDENTIAL PROPERTY","code":"110","description":"CONDO STORAGE (RES)","landuse":"CD"},
{"use": "APARTMENT PROPERTY","code":"111","description":"APT 4-6 UNITS","landuse":"R4"},
{"use": "APARTMENT PROPERTY","code":"112","description":"APT 7-30 UNITS","landuse":"A"},
{"use": "APARTMENT PROPERTY","code":"113","description":"APT 31-99 UNITS","landuse":"A"},
{"use": "APARTMENT PROPERTY","code":"114","description":"APT 100+ UNITS","landuse":"A"},
{"use": "APARTMENT PROPERTY","code":"115","description":"CO-OP APARTMENT","landuse":"A"},
{"use": "APARTMENT PROPERTY","code":"116","description":"RES PARKING GARAGE","landuse":"A"},
{"use": "APARTMENT PROPERTY","code":"117","description":"DAY CARE USE","landuse":"A"},
{"use": "APARTMENT PROPERTY","code":"118","description":"ELDERLY HOME","landuse":"A"},
{"use": "APARTMENT PROPERTY","code":"119","description":"RES PARKING LOT","landuse":"A"},
{"use": "APARTMENT PROPERTY","code":"121","description":"ROOMING HOUSE","landuse":"A"},
{"use": "APARTMENT PROPERTY","code":"122","description":"FRATERNITY HOUSE","landuse":"A"},
{"use": "APARTMENT PROPERTY","code":"123","description":"RESIDENCE HALL","landuse":"A"},
{"use": "APARTMENT PROPERTY","code":"125","description":"SUBSD HOUSING S-8","landuse":"A"},
{"use": "APARTMENT PROPERTY","code":"126","description":"SUBSD HOUSING S-231D","landuse":"A"},
{"use": "APARTMENT PROPERTY","code":"127","description":"SUBSD HOUSING S-202","landuse":"A"},
{"use": "APARTMENT PROPERTY","code":"130","description":"RESIDENTIAL LAND","landuse":"RL"},
{"use": "APARTMENT PROPERTY","code":"131","description":"RES LAND (SECONDARY)","landuse":"RL"},
{"use": "APARTMENT PROPERTY","code":"132","description":"RES LAN (UNUSABLE)","landuse":"RL"},
{"use": "APARTMENT PROPERTY","code":"140","description":"CHILD CARE FACILITY","landuse":"A"},
{"use": "APARTMENT PROPERTY","code":"150","description":"APT: STUDIO","landuse":"A"},
{"use": "APARTMENT PROPERTY","code":"151","description":"APT: 1 BEDROOM UNIT","landuse":"A"},
{"use": "APARTMENT PROPERTY","code":"152","description":"APT: 2 BEDROOM UNIT","landuse":"A"},
{"use": "APARTMENT PROPERTY","code":"153","description":"APT: 3 BEDROOM UNIT","landuse":"A"},
{"use": "APARTMENT PROPERTY","code":"154","description":"APT: 4 BEDROOM UNIT","landuse":"A"},
{"use": "APARTMENT PROPERTY","code":"202","description":"UNDERWATER LAND","landuse":"RL"},
{"use": "APARTMENT PROPERTY","code":"211","description":"NON-PRODUCTIVE LAND","landuse":"RL"},
{"use": "COMMERCIAL PROPERTY","code":"300","description":"HOTEL","landuse":"C"},
{"use": "COMMERCIAL PROPERTY","code":"301","description":"MOTEL","landuse":"C"},
{"use": "COMMERCIAL PROPERTY","code":"302","description":"INN,RESORT,B&B","landuse":"C"},
{"use": "COMMERCIAL PROPERTY","code":"303","description":"PRIV CITY CLUB","landuse":"C"},
{"use": "COMMERCIAL PROPERTY","code":"304","description":"NURSING/CONV HOME","landuse":"C"},
{"use": "COMMERCIAL PROPERTY","code":"305","description":"HOSPITAL:PRIVATE/TAXABLE","landuse":"C"},
{"use": "COMMERCIAL PROPERTY","code":"306","description":"LABORATORY","landuse":"C"},
{"use": "COMMERCIAL PROPERTY","code":"307","description":"VETERINARY HOSPITAL","landuse":"C"},
{"use": "COMMERCIAL PROPERTY","code":"309","description":"MED CLINIC OUTPATIENT","landuse":"C"},
{"use": "COMMERCIAL PROPERTY","code":"310","description":"LAUNDRY OPERATION","landuse":"C"},
{"use": "COMMERCIAL PROPERTY","code":"311","description":"LAUNDROMAT/CLEANER","landuse":"C"},
{"use": "COMMERCIAL PROPERTY","code":"312","description":"MINI-STORAGE WHSE","landuse":"C"},
{"use": "COMMERCIAL PROPERTY","code":"313","description":"LUMBER YARD STORAGE","landuse":"C"},
{"use": "COMMERCIAL PROPERTY","code":"314","description":"TRUCK TERMINAL","landuse":"C"},
{"use": "COMMERCIAL PROPERTY","code":"315","description":"PIERS/DOCK","landuse":"C"},
{"use": "COMMERCIAL PROPERTY","code":"316","description":"WAREHOUSE/DISTRIBUTION","landuse":"C"},
{"use": "COMMERCIAL PROPERTY","code":"317","description":"STORAGE WHSE/GARAGE","landuse":"C"},
{"use": "COMMERCIAL PROPERTY","code":"318","description":"COLD STORAGE WHSE","landuse":"C"},
{"use": "COMMERCIAL PROPERTY","code":"319","description":"STRIP CENTER/STORES","landuse":"C"},
{"use": "COMMERCIAL PROPERTY","code":"320","description":"RETAIL/WHSL/SERVICE","landuse":"C"},
{"use": "COMMERCIAL PROPERTY","code":"321","description":"DISCOUNT STORE","landuse":"C"},
{"use": "COMMERCIAL PROPERTY","code":"322","description":"DEPARTMENT STORE/MALL","landuse":"C"},
{"use": "COMMERCIAL PROPERTY","code":"323","description":"SHOPPING CENTER","landuse":"C"},
{"use": "COMMERCIAL PROPERTY","code":"324","description":"SUPERMARKET","landuse":"C"},
{"use": "COMMERCIAL PROPERTY","code":"325","description":"RETAIL STORE DETACHED","landuse":"C"},
{"use": "COMMERCIAL PROPERTY","code":"326","description":"RESTAURANT/SERVICE","landuse":"C"},
{"use": "COMMERCIAL PROPERTY","code":"327","description":"RESTAURANT/LOUNGE","landuse":"C"},
{"use": "COMMERCIAL PROPERTY","code":"328","description":"FAST FOOD RESTAURANT","landuse":"C"},
{"use": "COMMERCIAL PROPERTY","code":"329","description":"BAR/TAVERN/PUB","landuse":"C"},
{"use": "COMMERCIAL PROPERTY","code":"330","description":"SHOWROOM (AUTO)","landuse":"C"},
{"use": "COMMERCIAL PROPERTY","code":"331","description":"AUTO SUPPLY/SERVICE","landuse":"C"},
{"use": "COMMERCIAL PROPERTY","code":"332","description":"REPAIR/SERV GARAGE","landuse":"C"},
{"use": "COMMERCIAL PROPERTY","code":"333","description":"SELF-SERV STATION","landuse":"C"},
{"use": "COMMERCIAL PROPERTY","code":"334","description":"SERVICE CENTER/RETAIL","landuse":"C"},
{"use": "COMMERCIAL PROPERTY","code":"335","description":"CAR WASH: AUTOMATIC","landuse":"C"},
{"use": "COMMERCIAL PROPERTY","code":"336","description":"COM PARKING GARAGE","landuse":"C"},
{"use": "COMMERCIAL PROPERTY","code":"337","description":"PARKING LOT","landuse":"C"},
{"use": "COMMERCIAL PROPERTY","code":"338","description":"SUBTERRANEAN GARAGE","landuse":"C"},
{"use": "COMMERCIAL PROPERTY","code":"339","description":"CAR WASH: SELF-SERVICE","landuse":"C"},
{"use": "COMMERCIAL PROPERTY","code":"340","description":"OFFICE (ATTACHED)","landuse":"C"},
{"use": "COMMERCIAL PROPERTY","code":"341","description":"BANK BUILDING","landuse":"C"},
{"use": "COMMERCIAL PROPERTY","code":"342","description":"MEDICAL OFFICE","landuse":"C"},
{"use": "COMMERCIAL PROPERTY","code":"343","description":"OFFICE 1-2 STORY","landuse":"C"},
{"use": "COMMERCIAL PROPERTY","code":"344","description":"OFFICE 3-9 STORY","landuse":"C"},
{"use": "COMMERCIAL PROPERTY","code":"345","description":"OFFICE: CLASS B","landuse":"C"},
{"use": "COMMERCIAL PROPERTY","code":"346","description":"OFFICE: CLASS B+","landuse":"C"},
{"use": "COMMERCIAL PROPERTY","code":"347","description":"OFFICE: CLASS A-","landuse":"C"},
{"use": "COMMERCIAL PROPERTY","code":"348","description":"OFFICE TOWER CLASS A","landuse":"C"},
{"use": "COMMERCIAL PROPERTY","code":"350","description":"POSTAL SERVICE","landuse":"C"},
{"use": "COMMERCIAL PROPERTY","code":"351","description":"TRAINING/PRIV EDUC","landuse":"C"},
{"use": "COMMERCIAL PROPERTY","code":"352","description":"DAY CARE USE (COM BLDG)","landuse":"C"},
{"use": "COMMERCIAL PROPERTY","code":"353","description":"SOCIAL CLUB","landuse":"C"},
{"use": "COMMERCIAL PROPERTY","code":"354","description":"MAUSOLEUM","landuse":"C"},
{"use": "COMMERCIAL PROPERTY","code":"355","description":"FUNERAL HOME","landuse":"C"},
{"use": "COMMERCIAL PROPERTY","code":"356","description":"COMM CONDO","landuse":"CC"},
{"use": "COMMERCIAL PROPERTY","code":"357","description":"RETAIL CONDO","landuse":"CC"},
{"use": "COMMERCIAL PROPERTY","code":"358","description":"OFFICE CONDO","landuse":"CC"},
{"use": "COMMERCIAL PROPERTY","code":"359","description":"CONDO PARKING (COM)","landuse":"CC"},
{"use": "COMMERCIAL PROPERTY","code":"360","description":"MUSEUM, GALLERY","landuse":"C"},
{"use": "COMMERCIAL PROPERTY","code":"361","description":"NIGHT CLUB","landuse":"C"},
{"use": "COMMERCIAL PROPERTY","code":"362","description":"MOVIE THEATER","landuse":"C"},
{"use": "COMMERCIAL PROPERTY","code":"363","description":"DRIVE-IN THEATER","landuse":"C"},
{"use": "COMMERCIAL PROPERTY","code":"364","description":"STAGE THEATER","landuse":"C"},
{"use": "COMMERCIAL PROPERTY","code":"365","description":"AUDITORIUM/SPORT CTR","landuse":"C"},
{"use": "COMMERCIAL PROPERTY","code":"366","description":"FIELDHOUSE/TRACK","landuse":"C"},
{"use": "COMMERCIAL PROPERTY","code":"367","description":"RACE TRACK","landuse":"C"},
{"use": "COMMERCIAL PROPERTY","code":"368","description":"FAIRGROUND,PARK","landuse":"C"},
{"use": "COMMERCIAL PROPERTY","code":"369","description":"ARTIST STUDIO","landuse":"C"},
{"use": "COMMERCIAL PROPERTY","code":"370","description":"BOWLING ALLEY","landuse":"C"},
{"use": "COMMERCIAL PROPERTY","code":"371","description":"ARENA: ICE SKATING","landuse":"C"},
{"use": "COMMERCIAL PROPERTY","code":"372","description":"ARENA: ROLLER SKATING","landuse":"C"},
{"use": "COMMERCIAL PROPERTY","code":"373","description":"SWIMMING POOL (ENCLOSED)","landuse":"C"},
{"use": "COMMERCIAL PROPERTY","code":"374","description":"HEALTH SPA/CLUB","landuse":"C"},
{"use": "COMMERCIAL PROPERTY","code":"375","description":"TENNIS/RACQUET CLUB","landuse":"C"},
{"use": "COMMERCIAL PROPERTY","code":"376","description":"GYM/ATHLETIC FACILITY","landuse":"C"},
{"use": "COMMERCIAL PROPERTY","code":"377","description":"RECREATION BLDG","landuse":"C"},
{"use": "COMMERCIAL PROPERTY","code":"380","description":"GOLF COURSE","landuse":"C"},
{"use": "COMMERCIAL PROPERTY","code":"381","description":"TENNIS COURT(S)","landuse":"C"},
{"use": "COMMERCIAL PROPERTY","code":"382","description":"STABLE,KENNEL","landuse":"C"},
{"use": "COMMERCIAL PROPERTY","code":"383","description":"SWIMMING POOL (OUTDOOR)","landuse":"C"},
{"use": "COMMERCIAL PROPERTY","code":"384","description":"BOAT HOUSE/MARINA","landuse":"C"},
{"use": "COMMERCIAL PROPERTY","code":"385","description":"TAXABLE BLDG ONLY","landuse":"C"},
{"use": "COMMERCIAL PROPERTY","code":"386","description":"CAMPGROUND FACILITY","landuse":"C"},
{"use": "COMMERCIAL PROPERTY","code":"387","description":"PAY PARKING LOT","landuse":"CL"},
{"use": "COMMERCIAL PROPERTY","code":"388","description":"AIR RIGHTS PROPERTY","landuse":"C"},
{"use": "COMMERCIAL PROPERTY","code":"389","description":"BLDG: CHAP 61 A LAND","landuse":"AH"},
{"use": "COMMERCIAL PROPERTY","code":"390","description":"COMMERCIAL LAND","landuse":"CL"},
{"use": "COMMERCIAL PROPERTY","code":"391","description":"COM LAND (SECONDARY)","landuse":"CL"},
{"use": "COMMERCIAL PROPERTY","code":"392","description":"COM LAND (UNUSABLE)","landuse":"CL"},
{"use": "COMMERCIAL PROPERTY","code":"393","description":"COM UNDERWATER LAND","landuse":"CL"},
{"use": "COMMERCIAL PROPERTY","code":"394","description":"UTILITY BLDG/SHED","landuse":"CL"},
{"use": "COMMERCIAL PROPERTY","code":"395","description":"AIR FREIGHT TERMINAL","landuse":"C"},
{"use": "COMMERCIAL PROPERTY","code":"396","description":"HANGAR: STORAGE, MAINT","landuse":"C"},
{"use": "COMMERCIAL PROPERTY","code":"397","description":"BUS/RAIL TERMINAL","landuse":"C"},
{"use": "COMMERCIAL PROPERTY","code":"398","description":"AIRPORT TERMINAL","landuse":"C"},
{"use": "COMMERCIAL PROPERTY","code":"399","description":"COM GREENHOUSE","landuse":"C"},
{"use": "INDUSTRIAL PROPERTY","code":"400","description":"OLD MANUFACTURING","landuse":"I"},
{"use": "INDUSTRIAL PROPERTY","code":"401","description":"OLD INDUSTRIAL WHSE","landuse":"I"},
{"use": "INDUSTRIAL PROPERTY","code":"402","description":"OFFICE: INDUSTRIAL USE","landuse":"I"},
{"use": "INDUSTRIAL PROPERTY","code":"403","description":"NEW MANUFACTURING","landuse":"I"},
{"use": "INDUSTRIAL PROPERTY","code":"404","description":"LIGHT MFG/R&D","landuse":"I"},
{"use": "INDUSTRIAL PROPERTY","code":"405","description":"INDUSTRIAL LOFT","landuse":"I"},
{"use": "INDUSTRIAL PROPERTY","code":"406","description":"COMPUTER EQUP BLDG","landuse":"I"},
{"use": "INDUSTRIAL PROPERTY","code":"407","description":"MACHINE SHOP (SMALL)","landuse":"I"},
{"use": "INDUSTRIAL PROPERTY","code":"408","description":"NEWSPAPER PLANT","landuse":"I"},
{"use": "INDUSTRIAL PROPERTY","code":"410","description":"MINING, QUARRYING","landuse":"I"},
{"use": "INDUSTRIAL PROPERTY","code":"412","description":"METAL PROCESSING","landuse":"I"},
{"use": "INDUSTRIAL PROPERTY","code":"413","description":"AUTO SALVAGE YARD","landuse":"I"},
{"use": "INDUSTRIAL PROPERTY","code":"414","description":"FOOD PROCESS PLANT","landuse":"I"},
{"use": "INDUSTRIAL PROPERTY","code":"415","description":"BOTTLING PLANT","landuse":"I"},
{"use": "INDUSTRIAL PROPERTY","code":"416","description":"CANNERY","landuse":"I"},
{"use": "INDUSTRIAL PROPERTY","code":"417","description":"DAIRY","landuse":"I"},
{"use": "INDUSTRIAL PROPERTY","code":"420","description":"TANKS: ABOVE GROUND","landuse":"I"},
{"use": "INDUSTRIAL PROPERTY","code":"421","description":"TANKS: UNDER GROUND","landuse":"I"},
{"use": "INDUSTRIAL PROPERTY","code":"422","description":"ELEC POWER PLANT","landuse":"I"},
{"use": "INDUSTRIAL PROPERTY","code":"423","description":"ELEC TRANS R O W","landuse":"I"},
{"use": "INDUSTRIAL PROPERTY","code":"424","description":"ELEC SUBSTATION","landuse":"I"},
{"use": "INDUSTRIAL PROPERTY","code":"425","description":"GAS MANUFACTR PLANT","landuse":"I"},
{"use": "INDUSTRIAL PROPERTY","code":"426","description":"GAS PIPELINE R O W","landuse":"I"},
{"use": "INDUSTRIAL PROPERTY","code":"427","description":"GAS STORAGE","landuse":"I"},
{"use": "INDUSTRIAL PROPERTY","code":"428","description":"GAS PRESSURE STATION","landuse":"I"},
{"use": "INDUSTRIAL PROPERTY","code":"430","description":"TELEPH EXCHG STATION","landuse":"I"},
{"use": "INDUSTRIAL PROPERTY","code":"431","description":"TELEPH RELAY TOWER","landuse":"I"},
{"use": "INDUSTRIAL PROPERTY","code":"432","description":"CABLE TV FACILITY","landuse":"I"},
{"use": "INDUSTRIAL PROPERTY","code":"433","description":"RADIO/TV TRANS FACILITY","landuse":"I"},
{"use": "INDUSTRIAL PROPERTY","code":"435","description":"RADIO/TV STUDIO","landuse":"I"},
{"use": "INDUSTRIAL PROPERTY","code":"436","description":"STUDIO/REMOTE CONTR","landuse":"I"},
{"use": "INDUSTRIAL PROPERTY","code":"440","description":"INDUSTRIAL LAND","landuse":"CL"},
{"use": "INDUSTRIAL PROPERTY","code":"441","description":"IND LAND (SECONDARY)","landuse":"CL"},
{"use": "INDUSTRIAL PROPERTY","code":"442","description":"IND LAND (UNUSABLE)","landuse":"CL"},
{"use": "INDUSTRIAL PROPERTY","code":"445","description":"RAILROAD PROP","landuse":"I"},
{"use": "INDUSTRIAL PROPERTY","code":"446","description":"WATER/SEWER UTILITY","landuse":"I"},
{"use": "INDUSTRIAL PROPERTY","code":"450","description":"INDUSTRIAL CONDO","landuse":"I"},
{"use": "INDUSTRIAL PROPERTY","code":"465","description":"COM BILLBOARD","landuse":"C"},
{"use": "EXEMPT OWNERSHIP","code":"900","description":"U.S. GOVERNMENT","landuse":"E"},
{"use": "EXEMPT OWNERSHIP","code":"901","description":"COMMONWEALTH OF MASS","landuse":"E"},
{"use": "EXEMPT OWNERSHIP","code":"902","description":"CITY OF BOSTON","landuse":"E"},
{"use": "EXEMPT OWNERSHIP","code":"903","description":"BOSTON REDEVELOPMENT AUTHORITY","landuse":"E"},
{"use": "EXEMPT OWNERSHIP","code":"904","description":"PRIVATE SCHOOL/COLLEGE","landuse":"E"},
{"use": "EXEMPT OWNERSHIP","code":"905","description":"CHARITABLE ORGANIZATION","landuse":"E"},
{"use": "EXEMPT OWNERSHIP","code":"906","description":"RELIGIOUS ORGANIZATION","landuse":"E"},
{"use": "EXEMPT OWNERSHIP","code":"907","description":"121-A PROPERTY","landuse":"EA"},
{"use": "EXEMPT OWNERSHIP","code":"908","description":"BOSTON HOUSING AUTHORITY","landuse":"E"},
{"use": "EXEMPT OWNERSHIP","code":"910","description":"MASS DEPARTMENT ENVIRONMENT MANAGEMENT","landuse":"E"},
{"use": "EXEMPT OWNERSHIP","code":"912","description":"MASS DEPARTMENT YOUTH SERVICES","landuse":"E"},
{"use": "EXEMPT OWNERSHIP","code":"914","description":"MASS DEPARTMENT MENTAL HEALTH","landuse":"E"},
{"use": "EXEMPT OWNERSHIP","code":"915","description":"METRO DIST COM (MDC) LAND","landuse":"E"},
{"use": "EXEMPT OWNERSHIP","code":"917","description":"MASS DEPT EDUCATION (COLLEGE)","landuse":"E"},
{"use": "EXEMPT OWNERSHIP","code":"918","description":"MASS ENVIRONMENT PROTECTION","landuse":"E"},
{"use": "EXEMPT OWNERSHIP","code":"920","description":"MASS ENVIRONMENT MGMT","landuse":"E"},
{"use": "EXEMPT OWNERSHIP","code":"921","description":"MASS ENVIRONMENT PROTECTION","landuse":"E"},
{"use": "EXEMPT OWNERSHIP","code":"922","description":"MASS CORRECTIONS/POLICE","landuse":"E"},
{"use": "EXEMPT OWNERSHIP","code":"923","description":"MASS DEPT OF PUBLIC HEALTH","landuse":"E"},
{"use": "EXEMPT OWNERSHIP","code":"924","description":"MASS HIGHWAY DEPT","landuse":"E"},
{"use": "EXEMPT OWNERSHIP","code":"925","description":"METROPOLITAN DIST COM (MDC)","landuse":"E"},
{"use": "EXEMPT OWNERSHIP","code":"926","description":"MASS DEPT JUSTICE/JUDICIARY","landuse":"E"},
{"use": "EXEMPT OWNERSHIP","code":"927","description":"MASS DEPT EDUCATION (COLLEGE)","landuse":"E"},
{"use": "EXEMPT OWNERSHIP","code":"928","description":"MASS DIV CAPITAL ASSET MANAGEMENT","landuse":"E"},
{"use": "EXEMPT OWNERSHIP","code":"929","description":"MASS : OTHER PROPERTY","landuse":"E"},
{"use": "EXEMPT PROPERTY TYPE","code":"950","description":"RETAIL CONDO: EXEMPT","landuse":"E"},
{"use": "EXEMPT PROPERTY TYPE","code":"960","description":"OFFICE CONDO: EXEMPT","landuse":"E"},
{"use": "EXEMPT PROPERTY TYPE","code":"965","description":"GOVERNMENT OFFICE BUILDING","landuse":"E"},
{"use": "EXEMPT PROPERTY TYPE","code":"970","description":"CHURCH, SYNAGOGUE","landuse":"E"},
{"use": "EXEMPT PROPERTY TYPE","code":"971","description":"RECTORY, CONVENT","landuse":"E"},
{"use": "EXEMPT PROPERTY TYPE","code":"972","description":"CORRECTIONAL BUILDING","landuse":"E"},
{"use": "EXEMPT PROPERTY TYPE","code":"973","description":"ADMINISTRATIVE BUILDING","landuse":"E"},
{"use": "EXEMPT PROPERTY TYPE","code":"974","description":"FIRE STATION","landuse":"E"},
{"use": "EXEMPT PROPERTY TYPE","code":"975","description":"POLICE STATION","landuse":"E"},
{"use": "EXEMPT PROPERTY TYPE","code":"976","description":"SCHOOL","landuse":"E"},
{"use": "EXEMPT PROPERTY TYPE","code":"977","description":"COLLEGE (ACADEMIC)","landuse":"E"},
{"use": "EXEMPT PROPERTY TYPE","code":"978","description":"LIBRARY","landuse":"E"},
{"use": "EXEMPT PROPERTY TYPE","code":"979","description":"HOSPITAL (EXEMPT)","landuse":"E"},
{"use": "EXEMPT PROPERTY TYPE","code":"980","description":"WATER TREATMENT PLANT","landuse":"E"},
{"use": "EXEMPT PROPERTY TYPE","code":"981","description":"INCINERATION PLANT","landuse":"E"},
{"use": "EXEMPT PROPERTY TYPE","code":"982","description":"ARMORY (MILITARY)","landuse":"E"},
{"use": "EXEMPT PROPERTY TYPE","code":"983","description":"CEMETERY","landuse":"E"},
{"use": "EXEMPT PROPERTY TYPE","code":"984","description":"PUBLIC BEACH","landuse":"E"},
{"use": "EXEMPT PROPERTY TYPE","code":"985","description":"OTHER EXEMPLT BUILDING","landuse":"E"},
{"use": "EXEMPT PROPERTY TYPE","code":"986","description":"OTHER PUBLIC LAND","landuse":"E"},
{"use": "EXEMPT PROPERTY TYPE","code":"995","description":"CONDO MAIN (NO VALUE)","landuse":"CM"},
{"use": "EXEMPT PROPERTY TYPE","code":"999","description":"PARTIAL EXEMPT ENTITY","landuse":"E"}]